sat12559
1 12559U 81059B   20046.87227473  .00000271  00000-0  82042-4 0  9997
2 12559  98.9357 344.8475 0003490 130.6225 275.8600 14.50380084 21256
